IRIDIUM 144             
1 43249U 18030A   25064.59545810  .00000245  00000+0  80345-4 0  9992
2 43249  86.3971 126.3326 0002231  90.9375 269.2076 14.34217739362972
IRIDIUM 149             
1 43250U 18030B   25064.60179961  .00000155  00000+0  48271-4 0  9998
2 43250  86.3970 126.3023 0002085  92.0735 268.0700 14.34217345362993
IRIDIUM 157             
1 43251U 18030C   25064.69060030  .00000380  00000+0  12872-3 0  9991
2 43251  86.3971 126.3080 0002212 102.4938 257.6506 14.34214858362984
IRIDIUM 140             
1 43252U 18030D   25064.57008863  .00000411  00000+0  13986-3 0  9997
2 43252  86.3971 126.3722 0002283  91.0167 269.1290 14.34217047363020
IRIDIUM 145             
1 43253U 18030E   25064.55739818  .00000313  00000+0  10478-3 0  9991
2 43253  86.3971 126.3506 0002031  84.8636 275.2792 14.34214742362958
IRIDIUM 146             
1 43254U 18030F   25064.67791080  .00000029  00000+0  31179-5 0  9991
2 43254  86.3970 126.3141 0002106  85.6312 274.5124 14.34217307362980
IRIDIUM 148             
1 43255U 18030G   25064.78573568 -.00000037  00000+0 -20187-4 0  9990
2 43255  86.3972 126.3044 0002000  95.8813 264.2611 14.34217008363040
IRIDIUM 142             
1 43256U 18030H   25064.54471696  .00000410  00000+0  13933-3 0  9997
2 43256  86.3970 126.3118 0001934  85.6985 274.4431 14.34218198362967
